{
"type": "FeatureCollection",
"name": "stations",
"crs": { "type": "name", "properties": { "name": "urn:ogc:def:crs:OGC:1.3:CRS84" } },
"features": [
{ "type": "Feature", "properties": { "stop_id": "MYP", "stop_name": "Miyapur", "station_id": "MYP", "evening_peak": 137.75, "late_night": 2.2, "midday": 114.16666666666667, "morning_peak": 130.0, "night": 68.333333333333329 }, "geometry": { "type": "Point", "coordinates": [ 78.3730262, 17.4965452 ] } },
{ "type": "Feature", "properties": { "stop_id": "JNT", "stop_name": "JNTU College", "station_id": "JNT", "evening_peak": 155.75, "late_night": 2.0, "midday": 131.0, "morning_peak": 149.33333333333334, "night": 75.0 }, "geometry": { "type": "Point", "coordinates": [ 78.3888668, 17.4987037 ] } },
{ "type": "Feature", "properties": { "stop_id": "KPH", "stop_name": "KPHB Colony", "station_id": "KPH", "evening_peak": 167.0, "late_night": 2.4, "midday": 139.16666666666666, "morning_peak": 152.0, "night": 87.666666666666671 }, "geometry": { "type": "Point", "coordinates": [ 78.4018258, 17.4937602 ] } },
{ "type": "Feature", "properties": { "stop_id": "KUK", "stop_name": "Kukatpally", "station_id": "KUK", "evening_peak": 185.25, "late_night": 3.8, "midday": 154.0, "morning_peak": 171.0, "night": 110.0 }, "geometry": { "type": "Point", "coordinates": [ 78.4117896, 17.4849033 ] } },
{ "type": "Feature", "properties": { "stop_id": "BLR", "stop_name": "Balanagar", "station_id": "BLR", "evening_peak": 145.75, "late_night": 2.6, "midday": 123.33333333333333, "morning_peak": 123.66666666666667, "night": 97.0 }, "geometry": { "type": "Point", "coordinates": [ 78.4221082, 17.4767464 ] } },
{ "type": "Feature", "properties": { "stop_id": "MSP", "stop_name": "Moosapet", "station_id": "MSP", "evening_peak": 219.5, "late_night": 3.6, "midday": 195.66666666666666, "morning_peak": 200.66666666666666, "night": 144.33333333333334 }, "geometry": { "type": "Point", "coordinates": [ 78.4261182, 17.4718855 ] } },
{ "type": "Feature", "properties": { "stop_id": "BTN", "stop_name": "Bharat Nagar", "station_id": "BTN", "evening_peak": 132.25, "late_night": 1.0, "midday": 123.66666666666667, "morning_peak": 120.33333333333333, "night": 74.333333333333329 }, "geometry": { "type": "Point", "coordinates": [ 78.4305364, 17.4629092 ] } },
{ "type": "Feature", "properties": { "stop_id": "ERA", "stop_name": "Erragadda", "station_id": "ERA", "evening_peak": 158.75, "late_night": 1.4, "midday": 138.83333333333334, "morning_peak": 146.33333333333334, "night": 76.666666666666671 }, "geometry": { "type": "Point", "coordinates": [ 78.4335811, 17.4570487 ] } },
{ "type": "Feature", "properties": { "stop_id": "ESI", "stop_name": "ESI Hospital", "station_id": "ESI", "evening_peak": 168.75, "late_night": 2.6, "midday": 145.66666666666666, "morning_peak": 158.0, "night": 99.333333333333329 }, "geometry": { "type": "Point", "coordinates": [ 78.4376283, 17.4486969 ] } },
{ "type": "Feature", "properties": { "stop_id": "SRN", "stop_name": "S. R. Nagar", "station_id": "SRN", "evening_peak": 210.75, "late_night": 4.4, "midday": 173.83333333333334, "morning_peak": 194.0, "night": 133.66666666666666 }, "geometry": { "type": "Point", "coordinates": [ 78.440724100000011, 17.4431205 ] } },
{ "type": "Feature", "properties": { "stop_id": "AME", "stop_name": "Ameerpet", "station_id": "AME", "evening_peak": 205.5, "late_night": 3.4, "midday": 170.33333333333334, "morning_peak": 175.33333333333334, "night": 124.33333333333333 }, "geometry": { "type": "Point", "coordinates": [ 78.444793300000015, 17.4357214 ] } },
{ "type": "Feature", "properties": { "stop_id": "PUN", "stop_name": "Panjagutta", "station_id": "PUN", "evening_peak": 221.25, "late_night": 2.6, "midday": 179.66666666666666, "morning_peak": 197.66666666666666, "night": 138.0 }, "geometry": { "type": "Point", "coordinates": [ 78.450955, 17.4289362 ] } },
{ "type": "Feature", "properties": { "stop_id": "IRM", "stop_name": "Erra Manzil", "station_id": "IRM", "evening_peak": 134.5, "late_night": 1.8, "midday": 109.5, "morning_peak": 122.33333333333333, "night": 82.666666666666671 }, "geometry": { "type": "Point", "coordinates": [ 78.4563489, 17.4202292 ] } },
{ "type": "Feature", "properties": { "stop_id": "KHA", "stop_name": "Khairatabad", "station_id": "KHA", "evening_peak": 130.0, "late_night": 2.2, "midday": 107.5, "morning_peak": 119.33333333333333, "night": 83.666666666666671 }, "geometry": { "type": "Point", "coordinates": [ 78.4608678, 17.4116323 ] } },
{ "type": "Feature", "properties": { "stop_id": "LKP", "stop_name": "Lakdi-ka-pul", "station_id": "LKP", "evening_peak": 288.25, "late_night": 11.0, "midday": 246.83333333333334, "morning_peak": 276.66666666666669, "night": 178.66666666666666 }, "geometry": { "type": "Point", "coordinates": [ 78.4649442, 17.4040433 ] } },
{ "type": "Feature", "properties": { "stop_id": "ASM", "stop_name": "Assembly", "station_id": "ASM", "evening_peak": 216.25, "late_night": 4.2, "midday": 192.5, "morning_peak": 221.66666666666666, "night": 117.0 }, "geometry": { "type": "Point", "coordinates": [ 78.4708797, 17.3979907 ] } },
{ "type": "Feature", "properties": { "stop_id": "NAM", "stop_name": "Nampally", "station_id": "NAM", "evening_peak": 213.5, "late_night": 5.0, "midday": 188.83333333333334, "morning_peak": 210.66666666666666, "night": 97.666666666666671 }, "geometry": { "type": "Point", "coordinates": [ 78.4701612, 17.392222 ] } },
{ "type": "Feature", "properties": { "stop_id": "GAB", "stop_name": "Gandhi Bhavan", "station_id": "GAB", "evening_peak": 210.25, "late_night": 3.4, "midday": 187.0, "morning_peak": 212.33333333333334, "night": 97.666666666666671 }, "geometry": { "type": "Point", "coordinates": [ 78.4733347, 17.3858253 ] } },
{ "type": "Feature", "properties": { "stop_id": "OMC", "stop_name": "Osmania Medical College", "station_id": "OMC", "evening_peak": 438.0, "late_night": 12.4, "midday": 385.33333333333331, "morning_peak": 408.33333333333331, "night": 269.0 }, "geometry": { "type": "Point", "coordinates": [ 78.4817011, 17.3820769 ] } },
{ "type": "Feature", "properties": { "stop_id": "MGB", "stop_name": "Mahatma Gandhi Bus Station", "station_id": "MGB", "evening_peak": 154.25, "late_night": 1.6, "midday": 171.5, "morning_peak": 148.33333333333334, "night": 99.333333333333329 }, "geometry": { "type": "Point", "coordinates": [ 78.4861571, 17.3797886 ] } },
{ "type": "Feature", "properties": { "stop_id": "MKL", "stop_name": "Malakpet", "station_id": "MKL", "evening_peak": 246.5, "late_night": 3.2, "midday": 245.16666666666666, "morning_peak": 272.0, "night": 159.33333333333334 }, "geometry": { "type": "Point", "coordinates": [ 78.4939356, 17.3771888 ] } },
{ "type": "Feature", "properties": { "stop_id": "NEM", "stop_name": "New Market", "station_id": "NEM", "evening_peak": 134.5, "late_night": 1.8, "midday": 121.33333333333333, "morning_peak": 148.66666666666666, "night": 80.0 }, "geometry": { "type": "Point", "coordinates": [ 78.5031791, 17.3734454 ] } },
{ "type": "Feature", "properties": { "stop_id": "MSB", "stop_name": "Musarambagh", "station_id": "MSB", "evening_peak": 119.25, "late_night": 1.4, "midday": 109.5, "morning_peak": 139.0, "night": 70.0 }, "geometry": { "type": "Point", "coordinates": [ 78.5119545, 17.3710873 ] } },
{ "type": "Feature", "properties": { "stop_id": "DSN", "stop_name": "Dilsukh Nagar", "station_id": "DSN", "evening_peak": 171.75, "late_night": 2.4, "midday": 160.0, "morning_peak": 190.0, "night": 113.33333333333333 }, "geometry": { "type": "Point", "coordinates": [ 78.5253873, 17.3685493 ] } },
{ "type": "Feature", "properties": { "stop_id": "CHP", "stop_name": "Chaitanyapuri", "station_id": "CHP", "evening_peak": 149.5, "late_night": 2.6, "midday": 132.5, "morning_peak": 165.66666666666666, "night": 98.666666666666671 }, "geometry": { "type": "Point", "coordinates": [ 78.5381335, 17.3681501 ] } },
{ "type": "Feature", "properties": { "stop_id": "VOM", "stop_name": "Victoria Memorial", "station_id": "VOM", "evening_peak": 128.25, "late_night": 1.8, "midday": 114.83333333333333, "morning_peak": 141.0, "night": 84.333333333333329 }, "geometry": { "type": "Point", "coordinates": [ 78.5439622, 17.3618565 ] } },
{ "type": "Feature", "properties": { "stop_id": "LBN", "stop_name": "L. B. Nagar", "station_id": "LBN", "evening_peak": 257.75, "late_night": 5.6, "midday": 221.0, "morning_peak": 219.0, "night": 162.33333333333334 }, "geometry": { "type": "Point", "coordinates": [ 78.5479412, 17.349846 ] } },
{ "type": "Feature", "properties": { "stop_id": "SUB", "stop_name": "Sultan Bazar", "station_id": "SUB", "evening_peak": 410.0, "late_night": 9.0, "midday": 356.0, "morning_peak": 401.66666666666669, "night": 246.33333333333334 }, "geometry": { "type": "Point", "coordinates": [ 78.4840241, 17.3844473 ] } },
{ "type": "Feature", "properties": { "stop_id": "NAR", "stop_name": "Narayanaguda", "station_id": "NAR", "evening_peak": 101.0, "late_night": 1.4, "midday": 96.0, "morning_peak": 113.33333333333333, "night": 72.0 }, "geometry": { "type": "Point", "coordinates": [ 78.489957800000013, 17.3943658 ] } },
{ "type": "Feature", "properties": { "stop_id": "CDP", "stop_name": "Chikkadpally", "station_id": "CDP", "evening_peak": 84.5, "late_night": 1.2, "midday": 76.333333333333329, "morning_peak": 88.666666666666671, "night": 61.333333333333336 }, "geometry": { "type": "Point", "coordinates": [ 78.4948964, 17.4003634 ] } },
{ "type": "Feature", "properties": { "stop_id": "RTC", "stop_name": "RTC Cross Roads", "station_id": "RTC", "evening_peak": 82.25, "late_night": 0.6, "midday": 77.166666666666671, "morning_peak": 85.333333333333329, "night": 59.666666666666664 }, "geometry": { "type": "Point", "coordinates": [ 78.4968023, 17.4070321 ] } },
{ "type": "Feature", "properties": { "stop_id": "MSH", "stop_name": "Musheerabad", "station_id": "MSH", "evening_peak": 86.0, "late_night": 0.4, "midday": 84.333333333333329, "morning_peak": 88.666666666666671, "night": 58.666666666666664 }, "geometry": { "type": "Point", "coordinates": [ 78.4995051, 17.4178744 ] } },
{ "type": "Feature", "properties": { "stop_id": "GNH", "stop_name": "Gandhi Hospital", "station_id": "GNH", "evening_peak": 77.75, "late_night": 0.2, "midday": 73.333333333333329, "morning_peak": 80.666666666666671, "night": 54.0 }, "geometry": { "type": "Point", "coordinates": [ 78.501956, 17.4255155 ] } },
{ "type": "Feature", "properties": { "stop_id": "SCR", "stop_name": "Secunderabad West", "station_id": "SCR", "evening_peak": 805.25, "late_night": 22.4, "midday": 695.0, "morning_peak": 663.0, "night": 488.33333333333331 }, "geometry": { "type": "Point", "coordinates": [ 78.4995181, 17.4338034 ] } },
{ "type": "Feature", "properties": { "stop_id": "JBS", "stop_name": "JBS Parade Ground", "station_id": "JBS", "evening_peak": 532.25, "late_night": 24.4, "midday": 464.66666666666669, "morning_peak": 458.33333333333331, "night": 376.0 }, "geometry": { "type": "Point", "coordinates": [ 78.497584, 17.4444775 ] } },
{ "type": "Feature", "properties": { "stop_id": "NAG", "stop_name": "Nagole", "station_id": "NAG", "evening_peak": 160.25, "late_night": 7.6, "midday": 137.16666666666666, "morning_peak": 154.33333333333334, "night": 136.66666666666666 }, "geometry": { "type": "Point", "coordinates": [ 78.5588222, 17.3907683 ] } },
{ "type": "Feature", "properties": { "stop_id": "UPL", "stop_name": "Uppal", "station_id": "UPL", "evening_peak": 281.75, "late_night": 14.0, "midday": 243.66666666666666, "morning_peak": 258.33333333333331, "night": 214.0 }, "geometry": { "type": "Point", "coordinates": [ 78.5601868, 17.4000665 ] } },
{ "type": "Feature", "properties": { "stop_id": "STD", "stop_name": "Stadium", "station_id": "STD", "evening_peak": 134.25, "late_night": 3.6, "midday": 116.66666666666667, "morning_peak": 110.66666666666667, "night": 91.666666666666671 }, "geometry": { "type": "Point", "coordinates": [ 78.5542531, 17.4074002 ] } },
{ "type": "Feature", "properties": { "stop_id": "NGR", "stop_name": "NGRI", "station_id": "NGR", "evening_peak": 135.25, "late_night": 4.2, "midday": 116.16666666666667, "morning_peak": 112.66666666666667, "night": 90.333333333333329 }, "geometry": { "type": "Point", "coordinates": [ 78.5463345, 17.4148264 ] } },
{ "type": "Feature", "properties": { "stop_id": "HSG", "stop_name": "Habsiguda", "station_id": "HSG", "evening_peak": 167.75, "late_night": 4.8, "midday": 141.16666666666666, "morning_peak": 144.33333333333334, "night": 108.0 }, "geometry": { "type": "Point", "coordinates": [ 78.540548, 17.42018 ] } },
{ "type": "Feature", "properties": { "stop_id": "TAR", "stop_name": "Tarnaka", "station_id": "TAR", "evening_peak": 213.75, "late_night": 8.8, "midday": 183.33333333333334, "morning_peak": 195.33333333333334, "night": 136.33333333333334 }, "geometry": { "type": "Point", "coordinates": [ 78.5300079, 17.4274418 ] } },
{ "type": "Feature", "properties": { "stop_id": "MET", "stop_name": "Mettuguda", "station_id": "MET", "evening_peak": 224.0, "late_night": 6.8, "midday": 181.0, "morning_peak": 192.66666666666666, "night": 142.66666666666666 }, "geometry": { "type": "Point", "coordinates": [ 78.5195754, 17.4355207 ] } },
{ "type": "Feature", "properties": { "stop_id": "SEC_E", "stop_name": "Secunderabad East", "station_id": "SEC_E", "evening_peak": 1098.25, "late_night": 24.6, "midday": 961.0, "morning_peak": 933.66666666666663, "night": 658.33333333333337 }, "geometry": { "type": "Point", "coordinates": [ 78.5054623, 17.4357184 ] } },
{ "type": "Feature", "properties": { "stop_id": "PRG", "stop_name": "Parade Ground", "station_id": "PRG", "evening_peak": 532.5, "late_night": 25.4, "midday": 464.83333333333331, "morning_peak": 459.66666666666669, "night": 376.66666666666669 }, "geometry": { "type": "Point", "coordinates": [ 78.4974687, 17.4431943 ] } },
{ "type": "Feature", "properties": { "stop_id": "PAR", "stop_name": "Paradise", "station_id": "PAR", "evening_peak": 246.25, "late_night": 7.2, "midday": 190.83333333333334, "morning_peak": 202.0, "night": 185.33333333333334 }, "geometry": { "type": "Point", "coordinates": [ 78.4862436, 17.4434668 ] } },
{ "type": "Feature", "properties": { "stop_id": "ROP", "stop_name": "Rasoolpura", "station_id": "ROP", "evening_peak": 126.25, "late_night": 6.4, "midday": 99.833333333333329, "morning_peak": 105.66666666666667, "night": 93.666666666666671 }, "geometry": { "type": "Point", "coordinates": [ 78.4764053, 17.443612 ] } },
{ "type": "Feature", "properties": { "stop_id": "PRN", "stop_name": "Prakash Nagar", "station_id": "PRN", "evening_peak": 121.5, "late_night": 3.8, "midday": 92.666666666666671, "morning_peak": 97.666666666666671, "night": 87.0 }, "geometry": { "type": "Point", "coordinates": [ 78.4658749, 17.4448889 ] } },
{ "type": "Feature", "properties": { "stop_id": "BEG", "stop_name": "Begumpet", "station_id": "BEG", "evening_peak": 125.0, "late_night": 5.0, "midday": 97.666666666666671, "morning_peak": 100.66666666666667, "night": 88.666666666666671 }, "geometry": { "type": "Point", "coordinates": [ 78.4569341, 17.4375661 ] } },
{ "type": "Feature", "properties": { "stop_id": "MUN", "stop_name": "Madhura Nagar", "station_id": "MUN", "evening_peak": 221.5, "late_night": 3.8, "midday": 177.5, "morning_peak": 195.33333333333334, "night": 139.66666666666666 }, "geometry": { "type": "Point", "coordinates": [ 78.4390993, 17.4369652 ] } },
{ "type": "Feature", "properties": { "stop_id": "YUG", "stop_name": "Yusufguda", "station_id": "YUG", "evening_peak": 60.5, "late_night": 1.0, "midday": 45.0, "morning_peak": 50.333333333333336, "night": 39.0 }, "geometry": { "type": "Point", "coordinates": [ 78.4273216, 17.4351132 ] } },
{ "type": "Feature", "properties": { "stop_id": "JR5", "stop_name": "Road No 5 Jubilee Hills", "station_id": "JR5", "evening_peak": 35.75, "late_night": 1.0, "midday": 26.333333333333332, "morning_peak": 30.666666666666668, "night": 23.666666666666668 }, "geometry": { "type": "Point", "coordinates": [ 78.4232069, 17.4300489 ] } },
{ "type": "Feature", "properties": { "stop_id": "JCP", "stop_name": "Jubilee Hills Checkpost", "station_id": "JCP", "evening_peak": 73.0, "late_night": 3.2, "midday": 50.0, "morning_peak": 60.666666666666664, "night": 44.0 }, "geometry": { "type": "Point", "coordinates": [ 78.4137145, 17.4281969 ] } },
{ "type": "Feature", "properties": { "stop_id": "PED", "stop_name": "Peddamma Gudi", "station_id": "PED", "evening_peak": 67.0, "late_night": 3.2, "midday": 46.333333333333336, "morning_peak": 60.0, "night": 38.0 }, "geometry": { "type": "Point", "coordinates": [ 78.4083721, 17.4306512 ] } },
{ "type": "Feature", "properties": { "stop_id": "MAD", "stop_name": "Madhapur", "station_id": "MAD", "evening_peak": 62.0, "late_night": 1.2, "midday": 44.166666666666664, "morning_peak": 49.666666666666664, "night": 35.333333333333336 }, "geometry": { "type": "Point", "coordinates": [ 78.4004257, 17.4372637 ] } },
{ "type": "Feature", "properties": { "stop_id": "DGC", "stop_name": "Durgam Cheruvu", "station_id": "DGC", "evening_peak": 62.5, "late_night": 2.4, "midday": 44.166666666666664, "morning_peak": 57.0, "night": 40.0 }, "geometry": { "type": "Point", "coordinates": [ 78.3875721, 17.4429466 ] } },
{ "type": "Feature", "properties": { "stop_id": "HTC", "stop_name": "HITEC City", "station_id": "HTC", "evening_peak": 101.75, "late_night": 2.6, "midday": 72.666666666666671, "morning_peak": 94.666666666666671, "night": 63.0 }, "geometry": { "type": "Point", "coordinates": [ 78.3831376, 17.4490055 ] } },
{ "type": "Feature", "properties": { "stop_id": "RDG", "stop_name": "Raidurg", "station_id": "RDG", "evening_peak": 38.5, "late_night": 0.0, "midday": 28.0, "morning_peak": 38.333333333333336, "night": 22.0 }, "geometry": { "type": "Point", "coordinates": [ 78.3772038, 17.442 ] } }
]
}
